OBJECT B                
1 51825U 22019B   25231.88214772  .00023914  00000+0  54090-3 0  9996
2 51825  97.3814 309.3471 0010735 147.4550 212.7361 15.43091320192882
